{"type": "FeatureCollection", "features": [ {"type": "Feature", "properties": {"norad_id": 58662, "name": "TIANMU-1 21", "group": "weather", "lat": -24.409617862404897, "lon": 100.76402042637852, "alt_km": 475.3116794460939, "timestamp": "2025-12-09T23:33:23.491212+00:00", "meta": {"OBJECT_NAME": "TIANMU-1 21", "OBJECT_ID": "2023-208C", "EPOCH": "2025-12-09T14:15:17.618688", "MEAN_MOTION": 15.31444075, "ECCENTRICITY": 0.00058874, "INCLINATION": 97.4376, "RA_OF_ASC_NODE": 96.9764, "ARG_OF_PERICENTER": 273.3832, "MEAN_ANOMALY": 86.6735, "EPHEMERIS_TYPE": 0, "CLASSIFICATION_TYPE": "U", "NORAD_CAT_ID": 58662, "ELEMENT_SET_NO": 999, "REV_AT_EPOCH": 10851, "BSTAR": 0.00053049063, "MEAN_MOTION_DOT": 0.00016055, "MEAN_MOTION_DDOT": 0}, "tle": {"line1": "1 58662U 23208C   25343.59395392  .00016055  00000+0  53049-3 0  9994", "line2": "2 58662  97.4376  96.9764 0005887 273.3832  86.6735 15.31444075108516"}}, "geometry": {"type": "Point", "coordinates": [100.76402042637852, -24.409617862404897]}}, {"type": "Feature", "properties": {"norad_id": 58663, "name": "TIANMU-1 22", "group": "weather", "lat": -62.3975088445417, "lon": 109.55508342919607, "alt_km": 488.51232742241973, "timestamp": "2025-12-09T23:33:23.491229+00:00", "meta": {"OBJECT_NAME": "TIANMU-1 22", "OBJECT_ID": "2023-208D", "EPOCH": "2025-12-09T14:24:00.795744", "MEAN_MOTION": 15.2751883, "ECCENTRICITY": 0.00027854, "INCLINATION": 97.4383, "RA_OF_ASC_NODE": 94.7041, "ARG_OF_PERICENTER": 302.6584, "MEAN_ANOMALY": 57.4387, "EPHEMERIS_TYPE": 0, "CLASSIFICATION_TYPE": "U", "NORAD_CAT_ID": 58663, "ELEMENT_SET_NO": 999, "REV_AT_EPOCH": 10835, "BSTAR": 0.00047503317, "MEAN_MOTION_DOT": 0.00012723, "MEAN_MOTION_DDOT": 0}, "tle": {"line1": "1 58663U 23208D   25343.60000921  .00012723  00000+0  47503-3 0  9994", "line2": "2 58663  97.4383  94.7041 0002785 302.6584  57.4387 15.27518830108350"}}, "geometry": {"type": "Point", "coordinates": [109.55508342919607, -62.3975088445417]}}, {"type": "Feature", "properties": {"norad_id": 58700, "name": "TIANMU-1 15", "group": "weather", "lat": 80.96791237429697, "lon": 41.015641962921116, "alt_km": 487.48582692727814, "timestamp": "2025-12-09T23:33:23.491246+00:00", "meta": {"OBJECT_NAME": "TIANMU-1 15", "OBJECT_ID": "2024-004A", "EPOCH": "2025-12-09T15:15:54.419328", "MEAN_MOTION": 15.24615288, "ECCENTRICITY": 0.00053244, "INCLINATION": 97.463, "RA_OF_ASC_NODE": 165.1171, "ARG_OF_PERICENTER": 311.7302, "MEAN_ANOMALY": 48.348, "EPHEMERIS_TYPE": 0, "CLASSIFICATION_TYPE": "U", "NORAD_CAT_ID": 58700, "ELEMENT_SET_NO": 999, "REV_AT_EPOCH": 10687, "BSTAR": 0.00041076168, "MEAN_MOTION_DOT": 0.00010069, "MEAN_MOTION_DDOT": 0}, "tle": {"line1": "1 58700U 24004A   25343.63604652  .00010069  00000+0  41076-3 0  9995", "line2": "2 58700  97.4630 165.1171 0005324 311.7302  48.3480 15.24615288106875"}}, "geometry": {"type": "Point", "coordinates": [41.015641962921116, 80.96791237429697]}}, {"type": "Feature", "properties": {"norad_id": 58701, "name": "TIANMU-1 16", "group": "weather", "lat": 0.5865821650032655, "lon": -15.070289524836348, "alt_km": 497.7215514453492, "timestamp": "2025-12-09T23:33:23.491262+00:00", "meta": {"OBJECT_NAME": "TIANMU-1 16", "OBJECT_ID": "2024-004B", "EPOCH": "2025-12-09T14:53:41.916192", "MEAN_MOTION": 15.24366749, "ECCENTRICITY": 0.00046366, "INCLINATION": 97.4569, "RA_OF_ASC_NODE": 164.4938, "ARG_OF_PERICENTER": 310.3269, "MEAN_ANOMALY": 49.7563, "EPHEMERIS_TYPE": 0, "CLASSIFICATION_TYPE": "U", "NORAD_CAT_ID": 58701, "ELEMENT_SET_NO": 999, "REV_AT_EPOCH": 10687, "BSTAR": 0.00040450755, "MEAN_MOTION_DOT": 9.84e-05, "MEAN_MOTION_DDOT": 0}, "tle": {"line1": "1 58701U 24004B   25343.62062403  .00009840  00000+0  40451-3 0  9998", "line2": "2 58701  97.4569 164.4938 0004636 310.3269  49.7563 15.24366749106874"}}, "geometry": {"type": "Point", "coordinates": [-15.070289524836348, 0.5865821650032655]}}, {"type": "Feature", "properties": {"norad_id": 58702, "name": "TIANMU-1 17", "group": "weather", "lat": -80.02133110530603, "lon": -62.879672755152974, "alt_km": 498.1680876007831, "timestamp": "2025-12-09T23:33:23.491278+00:00", "meta": {"OBJECT_NAME": "TIANMU-1 17", "OBJECT_ID": "2024-004C", "EPOCH": "2025-12-09T14:31:38.828064", "MEAN_MOTION": 15.24411087, "ECCENTRICITY": 0.00038539, "INCLINATION": 97.4604, "RA_OF_ASC_NODE": 164.8871, "ARG_OF_PERICENTER": 314.0561, "MEAN_ANOMALY": 46.0359, "EPHEMERIS_TYPE": 0, "CLASSIFICATION_TYPE": "U", "NORAD_CAT_ID": 58702, "ELEMENT_SET_NO": 999, "REV_AT_EPOCH": 10686, "BSTAR": 0.00042406657, "MEAN_MOTION_DOT": 0.00010333, "MEAN_MOTION_DDOT": 0}, "tle": {"line1": "1 58702U 24004C   25343.60531051  .00010333  00000+0  42407-3 0  9999", "line2": "2 58702  97.4604 164.8871 0003853 314.0561  46.0359 15.24411087106869"}}, "geometry": {"type": "Point", "coordinates": [-62.879672755152974, -80.02133110530603]}}, {"type": "Feature", "properties": {"norad_id": 58703, "name": "TIANMU-1 18", "group": "weather", "lat": -5.044420271166351, "lon": 166.1191793982187, "alt_km": 494.6339081384831, "timestamp": "2025-12-09T23:33:23.491295+00:00", "meta": {"OBJECT_NAME": "TIANMU-1 18", "OBJECT_ID": "2024-004D", "EPOCH": "2025-12-09T15:42:06.501888", "MEAN_MOTION": 15.24400968, "ECCENTRICITY": 0.00032069, "INCLINATION": 97.4621, "RA_OF_ASC_NODE": 165.1304, "ARG_OF_PERICENTER": 314.9958, "MEAN_ANOMALY": 45.1019, "EPHEMERIS_TYPE": 0, "CLASSIFICATION_TYPE": "U", "NORAD_CAT_ID": 58703, "ELEMENT_SET_NO": 999, "REV_AT_EPOCH": 10687, "BSTAR": 0.00041993027, "MEAN_MOTION_DOT": 0.00010228, "MEAN_MOTION_DDOT": 0}, "tle": {"line1": "1 58703U 24004D   25343.65424192  .00010228  00000+0  41993-3 0  9994", "line2": "2 58703  97.4621 165.1304 0003206 314.9958  45.1019 15.24400968106875"}}, "geometry": {"type": "Point", "coordinates": [166.1191793982187, -5.044420271166351]}}, {"type": "Feature", "properties": {"norad_id": 58990, "name": "INSAT-3DS", "group": "weather", "lat": 0.012750221556824719, "lon": 154.36662211114503, "alt_km": 35789.13027557261, "timestamp": "2025-12-09T23:33:23.491313+00:00", "meta": {"OBJECT_NAME": "INSAT-3DS", "OBJECT_ID": "2024-033A", "EPOCH": "2025-12-09T13:57:50.434272", "MEAN_MOTION": 1.00269596, "ECCENTRICITY": 0.00016344, "INCLINATION": 0.0218, "RA_OF_ASC_NODE": 91.6354, "ARG_OF_PERICENTER": 173.2346, "MEAN_ANOMALY": 105.2388, "EPHEMERIS_TYPE": 0, "CLASSIFICATION_TYPE": "U", "NORAD_CAT_ID": 58990, "ELEMENT_SET_NO": 999, "REV_AT_EPOCH": 4516, "BSTAR": 0, "MEAN_MOTION_DOT": -1.53e-06, "MEAN_MOTION_DDOT": 0}, "tle": {"line1": "1 58990U 24033A   25343.58183373 -.00000153  00000+0  00000+0 0  9996", "line2": "2 58990   0.0218  91.6354 0001634 173.2346 105.2388  1.00269596 45163"}}, "geometry": {"type": "Point", "coordinates": [154.36662211114503, 0.012750221556824719]}}, {"type": "Feature", "properties": {"norad_id": 59051, "name": "METEOR-M2 4", "group": "weather", "lat": 75.77157019439301, "lon": 157.96012647645466, "alt_km": 810.4802112700354, "timestamp": "2025-12-09T23:33:23.491334+00:00", "meta": {"OBJECT_NAME": "METEOR-M2 4", "OBJECT_ID": "2024-039A", "EPOCH": "2025-12-09T14:38:28.567104", "MEAN_MOTION": 14.22400554, "ECCENTRICITY": 0.00072172, "INCLINATION": 98.6762, "RA_OF_ASC_NODE": 300.5681, "ARG_OF_PERICENTER": 7.4813, "MEAN_ANOMALY": 352.6472, "EPHEMERIS_TYPE": 0, "CLASSIFICATION_TYPE": "U", "NORAD_CAT_ID": 59051, "ELEMENT_SET_NO": 999, "REV_AT_EPOCH": 9231, "BSTAR": 6.5784785e-05, "MEAN_MOTION_DOT": 1.03e-06, "MEAN_MOTION_DDOT": 0}, "tle": {"line1": "1 59051U 24039A   25343.61005286  .00000103  00000+0  65785-4 0  9991", "line2": "2 59051  98.6762 300.5681 0007217   7.4813 352.6472 14.22400554 92314"}}, "geometry": {"type": "Point", "coordinates": [157.96012647645466, 75.77157019439301]}}, {"type": "Feature", "properties": {"norad_id": 60133, "name": "GOES 19", "group": "weather", "lat": -0.00023930647186292162, "lon": -2.8605404222649686, "alt_km": 35782.738750039425, "timestamp": "2025-12-09T23:33:23.491351+00:00", "meta": {"OBJECT_NAME": "GOES 19", "OBJECT_ID": "2024-119A", "EPOCH": "2025-12-09T12:33:25.293024", "MEAN_MOTION": 1.00271399, "ECCENTRICITY": 0.00013479, "INCLINATION": 0.0188, "RA_OF_ASC_NODE": 159.4399, "ARG_OF_PERICENTER": 145.9184, "MEAN_ANOMALY": 246.3286, "EPHEMERIS_TYPE": 0, "CLASSIFICATION_TYPE": "U", "NORAD_CAT_ID": 60133, "ELEMENT_SET_NO": 999, "REV_AT_EPOCH": 506, "BSTAR": 0, "MEAN_MOTION_DOT": -2.46e-06, "MEAN_MOTION_DDOT": 0}, "tle": {"line1": "1 60133U 24119A   25343.52320941 -.00000246  00000+0  00000+0 0  9994", "line2": "2 60133   0.0188 159.4399 0001347 145.9184 246.3286  1.00271399  5063"}}, "geometry": {"type": "Point", "coordinates": [-2.8605404222649686, -0.00023930647186292162]}}, {"type": "Feature", "properties": {"norad_id": 65815, "name": "FENGYUN 3H", "group": "weather", "lat": 4.703006589384403, "lon": -77.08637662321145, "alt_km": 827.8805765596526, "timestamp": "2025-12-09T23:33:23.491369+00:00", "meta": {"OBJECT_NAME": "FENGYUN 3H", "OBJECT_ID": "2025-219A", "EPOCH": "2025-12-09T13:23:12.922080", "MEAN_MOTION": 14.19903357, "ECCENTRICITY": 6.059e-05, "INCLINATION": 98.658, "RA_OF_ASC_NODE": 283.2174, "ARG_OF_PERICENTER": 85.4652, "MEAN_ANOMALY": 274.6594, "EPHEMERIS_TYPE": 0, "CLASSIFICATION_TYPE": "U", "NORAD_CAT_ID": 65815, "ELEMENT_SET_NO": 999, "REV_AT_EPOCH": 1047, "BSTAR": 0.00011244628, "MEAN_MOTION_DOT": 1.96e-06, "MEAN_MOTION_DDOT": 0}, "tle": {"line1": "1 65815U 25219A   25343.55778845  .00000196  00000+0  11245-3 0  9991", "line2": "2 65815  98.6580 283.2174 0000605  85.4652 274.6594 14.19903357 10472"}}, "geometry": {"type": "Point", "coordinates": [-77.08637662321145, 4.703006589384403]}}]}